1 27386U 02009A   10193.06391714 -.00000130  00000-0 -32216-4 0  2348
2 27386 098.5486 259.8100 0001111 098.1402 261.9912 14.32245982437308